{"type": "FeatureCollection", "features": [ {"type": "Feature", "properties": {"norad_id": 33825, "name": "COSMOS 2251 DEB", "group": "cosmos-2251-debris", "lat": 27.814830055469507, "lon": 28.254276304813555, "alt_km": 616.7381004866575, "timestamp": "2025-12-16T23:36:36.590727+00:00", "meta": {"OBJECT_NAME": "COSMOS 2251 DEB", "OBJECT_ID": "1993-036BS", "EPOCH": "2025-12-16T08:52:50.184192", "MEAN_MOTION": 14.69795357, "ECCENTRICITY": 0.00847275, "INCLINATION": 73.9852, "RA_OF_ASC_NODE": 20.7317, "ARG_OF_PERICENTER": 346.8967, "MEAN_ANOMALY": 35.5007, "EPHEMERIS_TYPE": 0, "CLASSIFICATION_TYPE": "U", "NORAD_CAT_ID": 33825, "ELEMENT_SET_NO": 999, "REV_AT_EPOCH": 88933, "BSTAR": 0.0005611588, "MEAN_MOTION_DOT": 3.506e-05, "MEAN_MOTION_DDOT": 0}, "tle": {"line1": "1 33825U 93036BS  25350.37002528  .00003506  00000+0  56116-3 0  9999", "line2": "2 33825  73.9852  20.7317 0084727 346.8967  35.5007 14.69795357889335"}}, "geometry": {"type": "Point", "coordinates": [28.254276304813555, 27.814830055469507]}}, {"type": "Feature", "properties": {"norad_id": 33826, "name": "COSMOS 2251 DEB", "group": "cosmos-2251-debris", "lat": 1.6070047118289625, "lon": 42.357046532576604, "alt_km": 714.8590536965221, "timestamp": "2025-12-16T23:36:36.590738+00:00", "meta": {"OBJECT_NAME": "COSMOS 2251 DEB", "OBJECT_ID": "1993-036BT", "EPOCH": "2025-12-16T05:41:11.950368", "MEAN_MOTION": 14.51740662, "ECCENTRICITY": 0.00828318, "INCLINATION": 74.0652, "RA_OF_ASC_NODE": 43.3012, "ARG_OF_PERICENTER": 86.5068, "MEAN_ANOMALY": 334.7704, "EPHEMERIS_TYPE": 0, "CLASSIFICATION_TYPE": "U", "NORAD_CAT_ID": 33826, "ELEMENT_SET_NO": 999, "REV_AT_EPOCH": 87820, "BSTAR": 0.00051162415, "MEAN_MOTION_DOT": 2.121e-05, "MEAN_MOTION_DDOT": 0}, "tle": {"line1": "1 33826U 93036BT  25350.23694387  .00002121  00000+0  51162-3 0  9993", "line2": "2 33826  74.0652  43.3012 0082831  86.5068 334.7704 14.51740662878205"}}, "geometry": {"type": "Point", "coordinates": [42.357046532576604, 1.6070047118289625]}}, {"type": "Feature", "properties": {"norad_id": 33828, "name": "COSMOS 2251 DEB", "group": "cosmos-2251-debris", "lat": 32.09554720666929, "lon": 39.86361268115004, "alt_km": 761.1423172231662, "timestamp": "2025-12-16T23:36:36.590749+00:00", "meta": {"OBJECT_NAME": "COSMOS 2251 DEB", "OBJECT_ID": "1993-036BV", "EPOCH": "2025-12-16T03:32:29.743872", "MEAN_MOTION": 14.44344357, "ECCENTRICITY": 0.00294908, "INCLINATION": 74.0467, "RA_OF_ASC_NODE": 231.7532, "ARG_OF_PERICENTER": 304.2009, "MEAN_ANOMALY": 176.1689, "EPHEMERIS_TYPE": 0, "CLASSIFICATION_TYPE": "U", "NORAD_CAT_ID": 33828, "ELEMENT_SET_NO": 999, "REV_AT_EPOCH": 88362, "BSTAR": 0.00033260696, "MEAN_MOTION_DOT": 1.124e-05, "MEAN_MOTION_DDOT": 0}, "tle": {"line1": "1 33828U 93036BV  25350.14756648  .00001124  00000+0  33261-3 0  9996", "line2": "2 33828  74.0467 231.7532 0029490 304.2009 176.1689 14.44344357883623"}}, "geometry": {"type": "Point", "coordinates": [39.86361268115004, 32.09554720666929]}}, {"type": "Feature", "properties": {"norad_id": 33830, "name": "COSMOS 2251 DEB", "group": "cosmos-2251-debris", "lat": 20.16768203654361, "lon": 36.00864206631129, "alt_km": 668.4724811128581, "timestamp": "2025-12-16T23:36:36.590759+00:00", "meta": {"OBJECT_NAME": "COSMOS 2251 DEB", "OBJECT_ID": "1993-036BX", "EPOCH": "2025-12-16T08:47:07.154592", "MEAN_MOTION": 14.76941763, "ECCENTRICITY": 0.00424769, "INCLINATION": 74.0319, "RA_OF_ASC_NODE": 223.2561, "ARG_OF_PERICENTER": 342.5734, "MEAN_ANOMALY": 133.3365, "EPHEMERIS_TYPE": 0, "CLASSIFICATION_TYPE": "U", "NORAD_CAT_ID": 33830, "ELEMENT_SET_NO": 999, "REV_AT_EPOCH": 89525, "BSTAR": 0.00056144821, "MEAN_MOTION_DOT": 3.978e-05, "MEAN_MOTION_DDOT": 0}, "tle": {"line1": "1 33830U 93036BX  25350.36605503  .00003978  00000+0  56145-3 0  9991", "line2": "2 33830  74.0319 223.2561 0042476 342.5734 133.3365 14.76941763895256"}}, "geometry": {"type": "Point", "coordinates": [36.00864206631129, 20.16768203654361]}}, {"type": "Feature", "properties": {"norad_id": 33832, "name": "COSMOS 2251 DEB", "group": "cosmos-2251-debris", "lat": -37.07765136525605, "lon": -170.60041132135032, "alt_km": 696.6776744917561, "timestamp": "2025-12-16T23:36:36.590770+00:00", "meta": {"OBJECT_NAME": "COSMOS 2251 DEB", "OBJECT_ID": "1993-036BZ", "EPOCH": "2025-12-16T01:28:29.838144", "MEAN_MOTION": 14.60688276, "ECCENTRICITY": 0.00246095, "INCLINATION": 74.0539, "RA_OF_ASC_NODE": 203.6366, "ARG_OF_PERICENTER": 234.0149, "MEAN_ANOMALY": 279.0552, "EPHEMERIS_TYPE": 0, "CLASSIFICATION_TYPE": "U", "NORAD_CAT_ID": 33832, "ELEMENT_SET_NO": 999, "REV_AT_EPOCH": 88473, "BSTAR": 0.0008825038, "MEAN_MOTION_DOT": 4.29e-05, "MEAN_MOTION_DDOT": 0}, "tle": {"line1": "1 33832U 93036BZ  25350.06145646  .00004290  00000+0  88250-3 0  9997", "line2": "2 33832  74.0539 203.6366 0024609 234.0149 279.0552 14.60688276884737"}}, "geometry": {"type": "Point", "coordinates": [-170.60041132135032, -37.07765136525605]}}, {"type": "Feature", "properties": {"norad_id": 33835, "name": "COSMOS 2251 DEB", "group": "cosmos-2251-debris", "lat": -1.1087201288574533, "lon": -86.69121900091355, "alt_km": 657.2905559881065, "timestamp": "2025-12-16T23:36:36.590780+00:00", "meta": {"OBJECT_NAME": "COSMOS 2251 DEB", "OBJECT_ID": "1993-036CC", "EPOCH": "2025-12-16T08:16:07.341888", "MEAN_MOTION": 14.62289007, "ECCENTRICITY": 0.00543923, "INCLINATION": 74.057, "RA_OF_ASC_NODE": 94.214, "ARG_OF_PERICENTER": 146.7189, "MEAN_ANOMALY": 270.2911, "EPHEMERIS_TYPE": 0, "CLASSIFICATION_TYPE": "U", "NORAD_CAT_ID": 33835, "ELEMENT_SET_NO": 999, "REV_AT_EPOCH": 88842, "BSTAR": 0.00070468713, "MEAN_MOTION_DOT": 3.603e-05, "MEAN_MOTION_DDOT": 0}, "tle": {"line1": "1 33835U 93036CC  25350.34452942  .00003603  00000+0  70469-3 0  9991", "line2": "2 33835  74.0570  94.2140 0054392 146.7189 270.2911 14.62289007888427"}}, "geometry": {"type": "Point", "coordinates": [-86.69121900091355, -1.1087201288574533]}}, {"type": "Feature", "properties": {"norad_id": 33836, "name": "COSMOS 2251 DEB", "group": "cosmos-2251-debris", "lat": 64.64667222627251, "lon": 33.299217960932786, "alt_km": 607.9153003346928, "timestamp": "2025-12-16T23:36:36.590791+00:00", "meta": {"OBJECT_NAME": "COSMOS 2251 DEB", "OBJECT_ID": "1993-036CD", "EPOCH": "2025-12-16T04:19:16.483296", "MEAN_MOTION": 14.79684895, "ECCENTRICITY": 0.00226139, "INCLINATION": 73.9974, "RA_OF_ASC_NODE": 252.1614, "ARG_OF_PERICENTER": 104.0425, "MEAN_ANOMALY": 46.3518, "EPHEMERIS_TYPE": 0, "CLASSIFICATION_TYPE": "U", "NORAD_CAT_ID": 33836, "ELEMENT_SET_NO": 999, "REV_AT_EPOCH": 64139, "BSTAR": 0.00084335063, "MEAN_MOTION_DOT": 6.332e-05, "MEAN_MOTION_DDOT": 0}, "tle": {"line1": "1 33836U 93036CD  25350.18005189  .00006332  00000+0  84335-3 0  9990", "line2": "2 33836  73.9974 252.1614 0022613 104.0425  46.3518 14.79684895641396"}}, "geometry": {"type": "Point", "coordinates": [33.299217960932786, 64.64667222627251]}}, {"type": "Feature", "properties": {"norad_id": 33837, "name": "COSMOS 2251 DEB", "group": "cosmos-2251-debris", "lat": 6.809539345580648, "lon": 49.57046331469216, "alt_km": 728.7537280186361, "timestamp": "2025-12-16T23:36:36.590801+00:00", "meta": {"OBJECT_NAME": "COSMOS 2251 DEB", "OBJECT_ID": "1993-036CE", "EPOCH": "2025-12-16T07:01:38.002080", "MEAN_MOTION": 14.50709411, "ECCENTRICITY": 0.00358929, "INCLINATION": 74.0129, "RA_OF_ASC_NODE": 48.9089, "ARG_OF_PERICENTER": 270.0529, "MEAN_ANOMALY": 89.6518, "EPHEMERIS_TYPE": 0, "CLASSIFICATION_TYPE": "U", "NORAD_CAT_ID": 33837, "ELEMENT_SET_NO": 999, "REV_AT_EPOCH": 88847, "BSTAR": 0.00024479379, "MEAN_MOTION_DOT": 9.41e-06, "MEAN_MOTION_DDOT": 0}, "tle": {"line1": "1 33837U 93036CE  25350.29280095  .00000941  00000+0  24479-3 0  9997", "line2": "2 33837  74.0129  48.9089 0035892 270.0529  89.6518 14.50709411888473"}}, "geometry": {"type": "Point", "coordinates": [49.57046331469216, 6.809539345580648]}}, {"type": "Feature", "properties": {"norad_id": 33838, "name": "COSMOS 2251 DEB", "group": "cosmos-2251-debris", "lat": -22.493808594673215, "lon": -31.32660221778257, "alt_km": 726.1039617702227, "timestamp": "2025-12-16T23:36:36.590812+00:00", "meta": {"OBJECT_NAME": "COSMOS 2251 DEB", "OBJECT_ID": "1993-036CF", "EPOCH": "2025-12-16T05:15:23.003136", "MEAN_MOTION": 14.4837394, "ECCENTRICITY": 0.00274579, "INCLINATION": 74.0359, "RA_OF_ASC_NODE": 143.2976, "ARG_OF_PERICENTER": 264.662, "MEAN_ANOMALY": 273.0984, "EPHEMERIS_TYPE": 0, "CLASSIFICATION_TYPE": "U", "NORAD_CAT_ID": 33838, "ELEMENT_SET_NO": 999, "REV_AT_EPOCH": 88619, "BSTAR": 0.00039694233, "MEAN_MOTION_DOT": 1.465e-05, "MEAN_MOTION_DDOT": 0}, "tle": {"line1": "1 33838U 93036CF  25350.21901624  .00001465  00000+0  39694-3 0  9995", "line2": "2 33838  74.0359 143.2976 0027457 264.6620 273.0984 14.48373940886196"}}, "geometry": {"type": "Point", "coordinates": [-31.32660221778257, -22.493808594673215]}}, {"type": "Feature", "properties": {"norad_id": 33839, "name": "COSMOS 2251 DEB", "group": "cosmos-2251-debris", "lat": 15.321103069771366, "lon": -157.17694919276968, "alt_km": 655.1070810954816, "timestamp": "2025-12-16T23:36:36.590822+00:00", "meta": {"OBJECT_NAME": "COSMOS 2251 DEB", "OBJECT_ID": "1993-036CG", "EPOCH": "2025-12-16T01:08:06.555840", "MEAN_MOTION": 14.64428537, "ECCENTRICITY": 0.00852024, "INCLINATION": 74.0379, "RA_OF_ASC_NODE": 200.1245, "ARG_OF_PERICENTER": 311.4317, "MEAN_ANOMALY": 168.814, "EPHEMERIS_TYPE": 0, "CLASSIFICATION_TYPE": "U", "NORAD_CAT_ID": 33839, "ELEMENT_SET_NO": 999, "REV_AT_EPOCH": 89628, "BSTAR": 0.00020265974, "MEAN_MOTION_DOT": 1.096e-05, "MEAN_MOTION_DDOT": 0}, "tle": {"line1": "1 33839U 93036CG  25350.04729810  .00001096  00000+0  20266-3 0  9997", "line2": "2 33839  74.0379 200.1245 0085202 311.4317 168.8140 14.64428537896284"}}, "geometry": {"type": "Point", "coordinates": [-157.17694919276968, 15.321103069771366]}}]}